[{"OBJECT_NAME":"ONEWEB-0639","OBJECT_ID":"2023-029H","EPOCH":"2026-01-05T04:15:31.813920","MEAN_MOTION":13.19726432,"ECCENTRICITY":0.00015784,"INCLINATION":87.9219,"RA_OF_ASC_NODE":337.4148,"ARG_OF_PERICENTER":45.0373,"MEAN_ANOMALY":315.0888,"EPHEMERIS_TYPE":0,"CLASSIFICATION_TYPE":"U","NORAD_CAT_ID":55803,"ELEMENT_SET_NO":999,"REV_AT_EPOCH":13740,"BSTAR":0.0020369705,"MEAN_MOTION_DOT":8.29e-6,"MEAN_MOTION_DDOT":0},{"OBJECT_NAME":"ONEWEB-0640","OBJECT_ID":"2023-029J","EPOCH":"2026-01-05T06:46:19.754976","MEAN_MOTION":13.14501191,"ECCENTRICITY":0.00023491,"INCLINATION":87.901,"RA_OF_ASC_NODE":322.2147,"ARG_OF_PERICENTER":65.7505,"MEAN_ANOMALY":294.387,"EPHEMERIS_TYPE":0,"CLASSIFICATION_TYPE":"U","NORAD_CAT_ID":55804,"ELEMENT_SET_NO":999,"REV_AT_EPOCH":13801,"BSTAR":-0.00041110381,"MEAN_MOTION_DOT":-1.4e-6,"MEAN_MOTION_DDOT":0},{"OBJECT_NAME":"ONEWEB-0641","OBJECT_ID":"2023-029K","EPOCH":"2026-01-05T04:08:41.604864","MEAN_MOTION":13.19724375,"ECCENTRICITY":0.00016384,"INCLINATION":87.9222,"RA_OF_ASC_NODE":337.3983,"ARG_OF_PERICENTER":76.5405,"MEAN_ANOMALY":283.591,"EPHEMERIS_TYPE":0,"CLASSIFICATION_TYPE":"U","NORAD_CAT_ID":55805,"ELEMENT_SET_NO":999,"REV_AT_EPOCH":13741,"BSTAR":6.5500005e-5,"MEAN_MOTION_DOT":3.9e-7,"MEAN_MOTION_DDOT":0},{"OBJECT_NAME":"ONEWEB-0642","OBJECT_ID":"2023-029L","EPOCH":"2026-01-05T07:40:13.364832","MEAN_MOTION":13.19724456,"ECCENTRICITY":0.00012524,"INCLINATION":87.9208,"RA_OF_ASC_NODE":337.3898,"ARG_OF_PERICENTER":54.2022,"MEAN_ANOMALY":305.9227,"EPHEMERIS_TYPE":0,"CLASSIFICATION_TYPE":"U","NORAD_CAT_ID":55806,"ELEMENT_SET_NO":999,"REV_AT_EPOCH":13742,"BSTAR":0.00012049677,"MEAN_MOTION_DOT":6.1e-7,"MEAN_MOTION_DDOT":0},{"OBJECT_NAME":"ONEWEB-0643","OBJECT_ID":"2023-029M","EPOCH":"2026-01-05T06:02:56.382144","MEAN_MOTION":13.14502249,"ECCENTRICITY":0.00011604,"INCLINATION":87.901,"RA_OF_ASC_NODE":322.2072,"ARG_OF_PERICENTER":59.1698,"MEAN_ANOMALY":300.9546,"EPHEMERIS_TYPE":0,"CLASSIFICATION_TYPE":"U","NORAD_CAT_ID":55807,"ELEMENT_SET_NO":999,"REV_AT_EPOCH":13798,"BSTAR":0.00089151896,"MEAN_MOTION_DOT":3.43e-6,"MEAN_MOTION_DDOT":0},{"OBJECT_NAME":"ONEWEB-0644","OBJECT_ID":"2023-029N","EPOCH":"2026-01-05T07:33:22.756608","MEAN_MOTION":13.19723252,"ECCENTRICITY":0.00014451,"INCLINATION":87.9207,"RA_OF_ASC_NODE":337.3997,"ARG_OF_PERICENTER":73.507,"MEAN_ANOMALY":286.6221,"EPHEMERIS_TYPE":0,"CLASSIFICATION_TYPE":"U","NORAD_CAT_ID":55808,"ELEMENT_SET_NO":999,"REV_AT_EPOCH":13742,"BSTAR":-7.382773e-5,"MEAN_MOTION_DOT":-1.7e-7,"MEAN_MOTION_DDOT":0},{"OBJECT_NAME":"ONEWEB-0645","OBJECT_ID":"2023-029P","EPOCH":"2026-01-05T04:26:54.346272","MEAN_MOTION":13.19724783,"ECCENTRICITY":0.00017908,"INCLINATION":87.9204,"RA_OF_ASC_NODE":337.4191,"ARG_OF_PERICENTER":63.6915,"MEAN_ANOMALY":296.4402,"EPHEMERIS_TYPE":0,"CLASSIFICATION_TYPE":"U","NORAD_CAT_ID":55809,"ELEMENT_SET_NO":999,"REV_AT_EPOCH":13740,"BSTAR":-3.676745e-6,"MEAN_MOTION_DOT":1.1e-7,"MEAN_MOTION_DDOT":0},{"OBJECT_NAME":"ONEWEB-0646","OBJECT_ID":"2023-029Q","EPOCH":"2026-01-05T06:41:05.957952","MEAN_MOTION":13.19725533,"ECCENTRICITY":0.00015251,"INCLINATION":87.9219,"RA_OF_ASC_NODE":337.3942,"ARG_OF_PERICENTER":75.0943,"MEAN_ANOMALY":285.0359,"EPHEMERIS_TYPE":0,"CLASSIFICATION_TYPE":"U","NORAD_CAT_ID":55810,"ELEMENT_SET_NO":999,"REV_AT_EPOCH":13740,"BSTAR":0.0002017658,"MEAN_MOTION_DOT":9.4e-7,"MEAN_MOTION_DDOT":0},{"OBJECT_NAME":"ONEWEB-0648","OBJECT_ID":"2023-029R","EPOCH":"2026-01-05T07:06:52.728768","MEAN_MOTION":13.14502945,"ECCENTRICITY":0.00017917,"INCLINATION":87.9014,"RA_OF_ASC_NODE":322.1604,"ARG_OF_PERICENTER":47.5576,"MEAN_ANOMALY":312.5705,"EPHEMERIS_TYPE":0,"CLASSIFICATION_TYPE":"U","NORAD_CAT_ID":55811,"ELEMENT_SET_NO":999,"REV_AT_EPOCH":13799,"BSTAR":-0.00027377117,"MEAN_MOTION_DOT":-8.9e-7,"MEAN_MOTION_DDOT":0},{"OBJECT_NAME":"ONEWEB-0649","OBJECT_ID":"2023-029S","EPOCH":"2026-01-05T07:17:28.607712","MEAN_MOTION":13.19724384,"ECCENTRICITY":0.00016623,"INCLINATION":87.9218,"RA_OF_ASC_NODE":337.3857,"ARG_OF_PERICENTER":68.0461,"MEAN_ANOMALY":292.0849,"EPHEMERIS_TYPE":0,"CLASSIFICATION_TYPE":"U","NORAD_CAT_ID":55812,"ELEMENT_SET_NO":999,"REV_AT_EPOCH":13744,"BSTAR":7.2749866e-5,"MEAN_MOTION_DOT":4.2e-7,"MEAN_MOTION_DDOT":0},{"OBJECT_NAME":"ONEWEB-0650","OBJECT_ID":"2023-029T","EPOCH":"2026-01-05T07:10:39.959904","MEAN_MOTION":13.19724605,"ECCENTRICITY":0.00014987,"INCLINATION":87.9214,"RA_OF_ASC_NODE":337.3911,"ARG_OF_PERICENTER":69.2049,"MEAN_ANOMALY":290.9244,"EPHEMERIS_TYPE":0,"CLASSIFICATION_TYPE":"U","NORAD_CAT_ID":55813,"ELEMENT_SET_NO":999,"REV_AT_EPOCH":13741,"BSTAR":-1.537305e-6,"MEAN_MOTION_DOT":1.2e-7,"MEAN_MOTION_DDOT":0},{"OBJECT_NAME":"ONEWEB-0652","OBJECT_ID":"2023-029U","EPOCH":"2026-01-05T06:39:28.733760","MEAN_MOTION":13.14501677,"ECCENTRICITY":0.00018023,"INCLINATION":87.9008,"RA_OF_ASC_NODE":322.1836,"ARG_OF_PERICENTER":84.2933,"MEAN_ANOMALY":275.8402,"EPHEMERIS_TYPE":0,"CLASSIFICATION_TYPE":"U","NORAD_CAT_ID":55814,"ELEMENT_SET_NO":999,"REV_AT_EPOCH":13796,"BSTAR":-0.00029510071,"MEAN_MOTION_DOT":-9.7e-7,"MEAN_MOTION_DDOT":0},{"OBJECT_NAME":"ONEWEB-0653","OBJECT_ID":"2023-029V","EPOCH":"2026-01-05T06:16:38.803008","MEAN_MOTION":13.14501343,"ECCENTRICITY":0.00019097,"INCLINATION":87.9011,"RA_OF_ASC_NODE":322.1763,"ARG_OF_PERICENTER":79.7769,"MEAN_ANOMALY":280.3576,"EPHEMERIS_TYPE":0,"CLASSIFICATION_TYPE":"U","NORAD_CAT_ID":55815,"ELEMENT_SET_NO":999,"REV_AT_EPOCH":13799,"BSTAR":0.00029225243,"MEAN_MOTION_DOT":1.21e-6,"MEAN_MOTION_DDOT":0},{"OBJECT_NAME":"ONEWEB-0654","OBJECT_ID":"2023-029W","EPOCH":"2026-01-05T06:09:47.666880","MEAN_MOTION":13.14502167,"ECCENTRICITY":0.0001966,"INCLINATION":87.9012,"RA_OF_ASC_NODE":322.1771,"ARG_OF_PERICENTER":87.9499,"MEAN_ANOMALY":272.1855,"EPHEMERIS_TYPE":0,"CLASSIFICATION_TYPE":"U","NORAD_CAT_ID":55816,"ELEMENT_SET_NO":999,"REV_AT_EPOCH":13801,"BSTAR":0.00075185872,"MEAN_MOTION_DOT":2.92e-6,"MEAN_MOTION_DDOT":0},{"OBJECT_NAME":"ONEWEB-0656","OBJECT_ID":"2023-029X","EPOCH":"2026-01-05T06:01:46.994304","MEAN_MOTION":13.20770628,"ECCENTRICITY":0.00020108,"INCLINATION":87.9227,"RA_OF_ASC_NODE":306.9277,"ARG_OF_PERICENTER":87.8427,"MEAN_ANOMALY":272.2936,"EPHEMERIS_TYPE":0,"CLASSIFICATION_TYPE":"U","NORAD_CAT_ID":55817,"ELEMENT_SET_NO":999,"REV_AT_EPOCH":13964,"BSTAR":0.00029397998,"MEAN_MOTION_DOT":1.33e-6,"MEAN_MOTION_DDOT":0},{"OBJECT_NAME":"ONEWEB-0657","OBJECT_ID":"2023-029Y","EPOCH":"2026-01-05T07:03:49.137408","MEAN_MOTION":13.19723323,"ECCENTRICITY":0.00015863,"INCLINATION":87.9207,"RA_OF_ASC_NODE":337.3934,"ARG_OF_PERICENTER":108.0692,"MEAN_ANOMALY":252.0613,"EPHEMERIS_TYPE":0,"CLASSIFICATION_TYPE":"U","NORAD_CAT_ID":55818,"ELEMENT_SET_NO":999,"REV_AT_EPOCH":13742,"BSTAR":1.570412e-5,"MEAN_MOTION_DOT":1.9e-7,"MEAN_MOTION_DDOT":0},{"OBJECT_NAME":"ONEWEB-0658","OBJECT_ID":"2023-029Z","EPOCH":"2026-01-05T06:56:59.954784","MEAN_MOTION":13.19723405,"ECCENTRICITY":0.00014234,"INCLINATION":87.9226,"RA_OF_ASC_NODE":337.3522,"ARG_OF_PERICENTER":71.3179,"MEAN_ANOMALY":288.8109,"EPHEMERIS_TYPE":0,"CLASSIFICATION_TYPE":"U","NORAD_CAT_ID":55819,"ELEMENT_SET_NO":999,"REV_AT_EPOCH":13743,"BSTAR":4.821752e-6,"MEAN_MOTION_DOT":1.5e-7,"MEAN_MOTION_DDOT":0}]
