ONEWEB-0639             
1 55803U 23029H   26005.17745155  .00000829  00000+0  20370-2 0  9997
2 55803  87.9219 337.4148 0001578  45.0373 315.0888 13.19726432137408
ONEWEB-0640             
1 55804U 23029J   26005.28217309 -.00000140  00000+0 -41110-3 0  9999
2 55804  87.9010 322.2147 0002349  65.7505 294.3870 13.14501191138018
ONEWEB-0641             
1 55805U 23029K   26005.17270376  .00000039  00000+0  65500-4 0  9996
2 55805  87.9222 337.3983 0001638  76.5405 283.5910 13.19724375137412
ONEWEB-0642             
1 55806U 23029L   26005.31959913  .00000061  00000+0  12050-3 0  9990
2 55806  87.9208 337.3898 0001252  54.2022 305.9227 13.19724456137423
ONEWEB-0643             
1 55807U 23029M   26005.25204146  .00000343  00000+0  89152-3 0  9995
2 55807  87.9010 322.2072 0001160  59.1698 300.9546 13.14502249137982
ONEWEB-0644             
1 55808U 23029N   26005.31484672 -.00000017  00000+0 -73828-4 0  9991
2 55808  87.9207 337.3997 0001445  73.5070 286.6221 13.19723252137427
ONEWEB-0645             
1 55809U 23029P   26005.18535123  .00000011  00000+0 -36767-5 0  9990
2 55809  87.9204 337.4191 0001790  63.6915 296.4402 13.19724783137401
ONEWEB-0646             
1 55810U 23029Q   26005.27854118  .00000094  00000+0  20177-3 0  9996
2 55810  87.9219 337.3942 0001525  75.0943 285.0359 13.19725533137405
ONEWEB-0648             
1 55811U 23029R   26005.29644362 -.00000089  00000+0 -27377-3 0  9992
2 55811  87.9014 322.1604 0001791  47.5576 312.5705 13.14502945137997
ONEWEB-0649             
1 55812U 23029S   26005.30380333  .00000042  00000+0  72750-4 0  9993
2 55812  87.9218 337.3857 0001662  68.0461 292.0849 13.19724384137449
ONEWEB-0650             
1 55813U 23029T   26005.29907361  .00000012  00000+0 -15373-5 0  9995
2 55813  87.9214 337.3911 0001498  69.2049 290.9244 13.19724605137418
ONEWEB-0652             
1 55814U 23029U   26005.27741590 -.00000097  00000+0 -29510-3 0  9994
2 55814  87.9008 322.1836 0001802  84.2933 275.8402 13.14501677137961
ONEWEB-0653             
1 55815U 23029V   26005.26156022  .00000121  00000+0  29225-3 0  9993
2 55815  87.9011 322.1763 0001909  79.7769 280.3576 13.14501343137995
ONEWEB-0654             
1 55816U 23029W   26005.25680170  .00000292  00000+0  75186-3 0  9995
2 55816  87.9012 322.1771 0001966  87.9499 272.1855 13.14502167138018
ONEWEB-0656             
1 55817U 23029X   26005.25123836  .00000133  00000+0  29398-3 0  9995
2 55817  87.9227 306.9277 0002010  87.8427 272.2936 13.20770628139646
ONEWEB-0657             
1 55818U 23029Y   26005.29431872  .00000019  00000+0  15704-4 0  9992
2 55818  87.9207 337.3934 0001586 108.0692 252.0613 13.19723323137420
ONEWEB-0658             
1 55819U 23029Z   26005.28958281  .00000015  00000+0  48218-5 0  9993
2 55819  87.9226 337.3522 0001423  71.3179 288.8109 13.19723405137436
